INTELSAT 10 (IS-10)     
1 26766U 01019A   25245.23425172  .00000041  00000+0  00000+0 0  9995
2 26766   8.3800  62.1770 0002016 171.5208  47.6557  0.99077105 42721
INTELSAT 902 (IS-902)   
1 26900U 01039A   25238.44791433 -.00000288  00000+0  00000+0 0  9992
2 26900   5.3676  75.3889 0004191  79.9975 290.7092  1.00272273 87746
INTELSAT 904 (IS-904)   
1 27380U 02007A   25245.18447447 -.00000202  00000+0  00000+0 0  9999
2 27380   6.1931  72.6350 0003013  99.7228 208.1952  1.00272194 48879
DIRECTV 5 (TEMPO 1)     
1 27426U 02023A   25245.26404244 -.00000056  00000+0  00000+0 0  9992
2 27426   4.1355  78.9201 0003289  87.7753 159.9136  1.00272450 85230
INTELSAT 905 (IS-905)   
1 27438U 02027A   25245.24260399  .00000095  00000+0  00000+0 0  9990
2 27438   6.0231  73.2662 0002413  86.3948 132.1264  1.00272433 48476
GALAXY 3C (G-3C)        
1 27445U 02030A   25244.36322457 -.00000150  00000+0  00000+0 0  9991
2 27445   2.9909  81.6133 0002588  50.1586 244.9099  1.00271951 43597
INTELSAT 906 (IS-906)   
1 27513U 02041A   25245.17984476  .00000014  00000+0  00000+0 0  9992
2 27513   5.0660  76.4755 0002095 107.8307 286.1628  1.00273044 84144
GALAXY 13 (HORIZONS-1)  
1 27954U 03044A   25245.23150786  .00000134  00000+0  00000+0 0  9994
2 27954   0.6690  88.1502 0001938  75.4545 111.3638  1.00273527 43686
INTELSAT 10-02          
1 28358U 04022A   25245.23834500 -.00000009  00000+0  00000+0 0  9995
2 28358   0.0441 275.7266 0000782 241.4407 269.2943  1.00271446 77667
XM-3 (RHYTHM)           
1 28626U 05008A   25244.86455006 -.00000197  00000+0  00000+0 0  9994
2 28626   0.0354 318.2080 0000248 169.3295  78.6322  1.00272316 39731
DIRECTV 8               
1 28659U 05019A   25245.25665978  .00000003  00000+0  00000+0 0  9992
2 28659   0.0181 132.3660 0003121  33.7568 148.8864  1.00272860 74187
GALAXY 28 (G-28)        
1 28702U 05022A   25244.57862501 -.00000187  00000+0  00000+0 0  9994
2 28702   2.5499  82.5564 0002373  86.6177 291.4324  1.00281491 49093
GALAXY 16 (G-16)        
1 29236U 06023A   25244.64788241 -.00000124  00000+0  00000+0 0  9996
2 29236   0.0431 234.8463 0002896 292.6586 307.7855  1.00271911 70087
DIRECTV 9S              
1 29494U 06043A   25245.19161278 -.00000112  00000+0  00000+0 0  9997
2 29494   1.6710  84.4818 0003024  79.0165 145.8733  1.00271818 48499
GALAXY 17 (G-17)        
1 31307U 07016B   25245.28928578 -.00000205  00000+0  00000+0 0  9991
2 31307   2.2365  83.5959 0003261 121.9390 155.2984  1.00271526 66910
DIRECTV 10              
1 31862U 07032A   25245.18905654 -.00000101  00000+0  00000+0 0  9999
2 31862   0.0382 312.7068 0000326 288.3573  65.7996  1.00271844 42701
INTELSAT 11 (IS-11)     
1 32253U 07044B   25245.19558708 -.00000212  00000+0  00000+0 0  9995
2 32253   2.8083  82.2413 0007158 109.6373 172.4247  0.99051784 65593
HORIZONS-2              
1 32388U 07063B   25245.22395826 -.00000252  00000+0  00000+0 0  9993
2 32388   1.8523  84.2502 0001825  87.8861 176.3260  1.00271533 64928
DIRECTV 11              
1 32729U 08013A   25245.21884491 -.00000124  00000+0  00000+0 0  9996
2 32729   0.0347 316.0753 0000157 173.5778 191.5603  1.00271312 42700
GALAXY 18 (G-18)        
1 32951U 08024A   25245.25355139  .00000027  00000+0  00000+0 0  9992
2 32951   0.0175 139.5280 0003428  28.6114 141.7807  1.00271919 42961
INTELSAT 25 (IS-25)     
1 33153U 08034A   25245.23227831 -.00000222  00000+0  00000+0 0  9991
2 33153   1.9591  83.9357 0004491  99.7589 210.0752  1.00273399 62809
GALAXY 19 (G-19)        
1 33376U 08045A   25244.86247005 -.00000137  00000+0  00000+0 0  9998
2 33376   0.0514 270.6185 0002872 248.1002  36.0427  1.00271152 62019
FM-5                    
1 35493U 09034A   25244.57905836 -.00000198  00000+0  00000+0 0  9997
2 35493   0.0441 279.2799 0000834 148.1218  35.8956  1.00272469 43756
INTELSAT 14 (IS-14)     
1 36097U 09064A   25245.22959162  .00000000  00000+0  00000+0 0  9996
2 36097   0.0218 114.3139 0002533  47.9703 217.0055  1.00268745 57716
INTELSAT 15 (IS-15)     
1 36106U 09067A   25244.60580506 -.00000182  00000+0  00000+0 0  9995
2 36106   0.0308 265.5895 0002351 252.4207 126.2442  1.00271215 38339
DIRECTV 12              
1 36131U 09075A   25245.18905712 -.00000102  00000+0  00000+0 0  9998
2 36131   0.0023  85.6339 0000273  65.3343 155.9704  1.00272155 43664
INTELSAT 16 (IS-16)     
1 36397U 10006A   25245.28781581 -.00000243  00000+0  00000+0 0  9991
2 36397   0.0431 287.4746 0002163 234.3208 207.3059  1.00270682 56766
XM-5                    
1 37185U 10053A   25244.71582939 -.00000021  00000+0  00000+0 0  9996
2 37185   0.0588 276.6952 0000710 153.0629  53.8675  1.00271763 54592
INTELSAT 17 (IS-17)     
1 37238U 10065B   25245.10886729  .00000000  00000+0  00000+0 0  9992
2 37238   0.0293 231.2506 0002801 290.2786 285.1808  1.00270916 50354
INTELSAT 28 (IS-28)     
1 37392U 11016A   25244.80405645 -.00000223  00000+0  00000+0 0  9998
2 37392   1.0543  86.4827 0004683  73.2734  79.2178  1.00271028 50393
INTELSAT 18 (IS-18)     
1 37834U 11056A   25245.20289818  .00000055  00000+0  00000+0 0  9992
2 37834   0.0234 244.1081 0001979 271.5178  79.0158  1.00272740 50922
INTELSAT 22 (IS-22)     
1 38098U 12011A   25245.11008064 -.00000057  00000+0  00000+0 0  9992
2 38098   0.0228 232.7650 0001906 299.3487 281.1221  1.00272103  4293
INTELSAT 19 (IS-19)     
1 38356U 12030A   25245.20012484  .00000000  00000+0  00000+0 0  9998
2 38356   0.0172 130.2507 0002997  27.2312  62.1614  1.00270824 47565
INTELSAT 20 (IS-20)     
1 38740U 12043A   25244.68116256 -.00000021  00000+0  00000+0 0  9996
2 38740   0.0177 137.7089 0001739  44.7398 112.3466  1.00268207 47852
INTELSAT 21 (IS-21)     
1 38749U 12045A   25245.19211215 -.00000283  00000+0  00000+0 0  9995
2 38749   0.0187 132.2448 0001957  26.5062 193.9972  1.00269819 47632
INTELSAT 23 (IS-23)     
1 38867U 12057A   25245.22803162 -.00000283  00000+0  00000+0 0  9991
2 38867   0.0563 263.9584 0000693 265.5420 201.2207  1.00271390 47061
FM-6                    
1 39360U 13058A   25245.25975149 -.00000015  00000+0  00000+0 0  9993
2 39360   0.0203 129.9907 0002415  42.8544 146.1547  1.00269257 43179
INTELSAT 30 (IS-30)     
1 40271U 14062A   25244.43455426  .00000000  00000+0  00000+0 0  9995
2 40271   0.0187 105.5122 0001973 286.9802   9.7206  1.00255060  3885
DIRECTV 14              
1 40333U 14078B   25245.07610715 -.00000124  00000+0  00000+0 0  9994
2 40333   0.0181 121.4333 0000395  66.6498  81.5698  1.00272806 39159
DIRECTV 15              
1 40663U 15026A   25244.64718907 -.00000100  00000+0  00000+0 0  9992
2 40663   0.0272  96.1395 0000401 313.8573  61.1839  1.00270398 37570
SKY MEXICO-1            
1 40664U 15026B   25245.20322476 -.00000233  00000+0  00000+0 0  9995
2 40664   0.0275 259.4609 0002204 260.0486 176.4919  1.00270705 37565
INTELSAT 34 (IS-34)     
1 40874U 15039A   25244.44244096 -.00000283  00000+0  00000+0 0  9993
2 40874   0.0122 182.5992 0001567 198.9112  63.1276  1.00271124 36727
INTELSAT 31 (IS-31)     
1 41581U 16035A   25244.43455426 -.00000154  00000+0  00000+0 0  9993
2 41581   0.0253 232.4335 0003280 305.8763 223.9426  1.00315845 33784
INTELSAT 36 (IS-36)     
1 41747U 16053A   25244.53838902  .00000000  00000+0  00000+0 0  9991
2 41747   0.0161 111.7590 0001438 238.9042 252.5895  1.00269402 33052
INTELSAT 32E (IS-32E)   
1 41945U 17007B   25245.26038157 -.00000267  00000+0  00000+0 0  9992
2 41945   0.0142 105.1175 0000465 311.2041 335.8977  1.00270302 31336
INTELSAT 35E (IS-35E)   
1 42818U 17041A   25245.23167163 -.00000236  00000+0  00000+0 0  9993
2 42818   0.0373 267.4282 0002176 279.6077 203.5166  1.00272132 29926
INTELSAT 37E (IS-37E)   
1 42950U 17059A   25245.23496499 -.00000139  00000+0  00000+0 0  9998
2 42950   0.0166 132.4084 0002823  31.1119 244.7102  1.00272422 29177
AZERSPACE 2 (IS-38)     
1 43632U 18074A   25245.22614142  .00000138  00000+0  00000+0 0  9998
2 43632   0.0146 157.3809 0001556 352.2687 318.4948  1.00271355 25563
HORIZONS-3E             
1 43633U 18074B   25245.20073150 -.00000028  00000+0  00000+0 0  9994
2 43633   0.0385 265.9152 0001582  30.0601 286.9026  1.00272408 25456
AT&T T-16               
1 44333U 19034A   25245.21858491 -.00000113  00000+0  00000+0 0  9994
2 44333   0.0182 101.5338 0000607 338.5840 239.3221  1.00269192 22742
INTELSAT 39 (IS-39)     
1 44476U 19049B   25244.67454058  .00000036  00000+0  00000+0 0  9991
2 44476   0.0156 174.0575 0000375 201.5798 270.2277  1.00271302 22237
GALAXY 30 (G-30)        
1 46114U 20056C   25245.25189073  .00000038  00000+0  00000+0 0  9991
2 46114   0.0178 127.0996 0002383  35.9358 144.2945  1.00272259 18407
GALAXY 33 (G-33)        
1 54026U 22128A   25245.24547617  .00000081  00000+0  00000+0 0  9993
2 54026   0.0209 245.4667 0001933 270.4877 141.0658  1.00272055 10856
GALAXY 34 (G-34)        
1 54027U 22128B   25245.25000825  .00000061  00000+0  00000+0 0  9998
2 54027   0.0075 143.9238 0001448  21.4132 137.3065  1.00272085 11026
GALAXY 31 (G-31)        
1 54243U 22153A   25245.25499750  .00000015  00000+0  00000+0 0  9994
2 54243   0.0245 221.6060 0001256 312.5384 138.3068  1.00272166  4242
GALAXY 32 (G-32)        
1 54244U 22153B   25245.27825175  .00000000  00000+0  00000+0 0  9995
2 54244   0.0182 121.4675 0000522 321.4149 267.9666  1.00268828 10256
GALAXY 35 (G-35)        
1 54741U 22170A   25245.28114602 -.00000161  00000+0  00000+0 0  9992
2 54741   0.0171 121.4383 0002055  31.8883 196.4642  1.00272335 10003
GALAXY 36 (G-36)        
1 54742U 22170B   25245.28200069 -.00000184  00000+0  00000+0 0  9991
2 54742   0.0096 153.7611 0002309 333.9091 226.5293  1.00271353  9881
GALAXY 37 (G-37)        
1 57493U 23112A   25245.25166973  .00000000  00000+0  00000+0 0  9992
2 57493   0.0227 118.2733 0002086  50.4025 136.5730  1.00271257  7656
